NORAD_CAT_ID,OBJECT_NAME,OBJECT_TYPE,EPOCH,MEAN_MOTION,ECCENTRICITY,INCLINATION,RA_OF_ASC_NODE,ARG_OF_PERICENTER,MEAN_ANOMALY,BSTAR,MEAN_MOTION_DOT,MEAN_MOTION_DDOT,TLE_LINE0,TLE_LINE1,TLE_LINE2,SEMIMAJOR_AXIS,PERIOD,APOGEE,PERIGEE,DECAYED
51957.0,STARLINK-3694,PAYLOAD,2024-07-12 20:00:01,15.04769441,0.0001293,53.0534,230.9876,84.2933,275.8202,9.1956e-05,1.034e-05,0.0,0 STARLINK-3694,1 51957U 22025B   24194.83335392  .00001034  00000-0  91956-4 0  9996,2 51957  53.0534 230.9876 0001293  84.2933 275.8202 15.04769441129681,6930.35,95.696,553.112,551.319,0.0
51957.0,STARLINK-3694,PAYLOAD,2024-07-13 02:22:36,15.04770276,0.0001293,53.0537,229.7971,86.1271,273.9865,8.2315e-05,8.97e-06,0.0,0 STARLINK-3694,1 51957U 22025B   24195.09902868  .00000897  00000-0  82315-4 0  9998,2 51957  53.0537 229.7971 0001293  86.1271 273.9865 15.04770276130833,6930.348,95.696,553.109,551.317,0.0
51957.0,STARLINK-3694,PAYLOAD,2024-07-13 08:45:10,15.04773598,0.0001291,53.0535,228.6074,86.6971,273.4165,0.00010941,1.283e-05,0.0,0 STARLINK-3694,1 51957U 22025B   24195.36470047  .00001283  00000-0  10941-3 0  9992,2 51957  53.0535 228.6074 0001291  86.6971 273.4165 15.04773598129761,6930.338,95.695,553.097,551.308,0.0
51957.0,STARLINK-3694,PAYLOAD,2024-07-14 05:28:32,15.04767488,0.000129,53.053,224.7409,86.613,273.5006,5.8307e-05,5.54e-06,0.0,0 STARLINK-3694,1 51957U 22025B   24196.22814932  .00000554  00000-0  58307-4 0  9992,2 51957  53.0530 224.7409 0001290  86.6130 273.5006 15.04767488131007,6930.356,95.696,553.116,551.327,0.0
51957.0,STARLINK-3694,PAYLOAD,2024-07-14 08:39:49,15.04768055,0.0001283,53.053,224.145,89.9633,270.1502,6.0936e-05,5.92e-06,0.0,0 STARLINK-3694,1 51957U 22025B   24196.36098620  .00000592  00000-0  60936-4 0  9998,2 51957  53.0530 224.1450 0001283  89.9633 270.1502 15.04768055129915,6930.355,95.696,553.109,551.331,0.0
51957.0,STARLINK-3694,PAYLOAD,2024-07-15 06:58:49,15.04770978,0.0001305,53.0533,219.9815,91.7536,268.3601,1.1587e-05,-1.12e-06,0.0,0 STARLINK-3694,1 51957U 22025B   24197.29084748 -.00000112  00000-0  11587-4 0  9994,2 51957  53.0533 219.9815 0001305  91.7536 268.3601 15.04770978131169,6930.346,95.696,553.115,551.306,0.0
51957.0,STARLINK-3694,PAYLOAD,2024-07-15 18:08:19,15.04768827,0.0001286,53.0531,217.899,91.1394,268.9742,2.8091e-05,1.23e-06,0.0,0 STARLINK-3694,1 51957U 22025B   24197.75577958  .00000123  00000-0  28091-4 0  9994,2 51957  53.0531 217.8990 0001286  91.1394 268.9742 15.04768827130129,6930.352,95.696,553.109,551.326,0.0
51957.0,STARLINK-3694,PAYLOAD,2024-07-16 05:17:49,15.04763635,0.0001315,53.0536,215.8183,92.4787,267.6352,2.513e-05,8.1e-07,0.0,0 STARLINK-3694,1 51957U 22025B   24198.22071467  .00000081  00000-0  25130-4 0  9995,2 51957  53.0536 215.8183 0001315  92.4787 267.6352 15.04763635131305,6930.368,95.696,553.145,551.322,0.0
51957.0,STARLINK-3694,PAYLOAD,2024-07-16 11:40:23,15.04765996,0.0001322,53.0536,214.6287,92.4324,267.6815,4.4359e-05,3.55e-06,0.0,0 STARLINK-3694,1 51957U 22025B   24198.48638807  .00000355  00000-0  44359-4 0  9998,2 51957  53.0536 214.6287 0001322  92.4324 267.6815 15.04765996130239,6930.361,95.696,553.142,551.31,0.0
51957.0,STARLINK-3694,PAYLOAD,2024-07-17 09:59:23,15.04768485,0.0001311,53.0534,210.4646,91.3199,268.7939,5.935e-05,5.69e-06,0.0,0 STARLINK-3694,1 51957U 22025B   24199.41624971  .00000569  00000-0  59350-4 0  9993,2 51957  53.0534 210.4646 0001311  91.3199 268.7939 15.04768485131489,6930.353,95.696,553.127,551.31,0.0
51957.0,STARLINK-3694,PAYLOAD,2024-07-18 06:42:45,15.04767735,0.0001303,53.0534,206.598,90.2437,269.87,7.7385e-05,8.26e-06,0.0,0 STARLINK-3694,1 51957U 22025B   24200.27969549  .00000826  00000-0  77385-4 0  9997,2 51957  53.0534 206.5980 0001303  90.2437 269.8700 15.04767735130507,6930.356,95.696,553.124,551.318,0.0
51957.0,STARLINK-3694,PAYLOAD,2024-07-18 17:52:15,15.04767705,0.0001333,53.0535,204.5164,87.8027,272.3114,5.2805e-05,4.76e-06,0.0,0 STARLINK-3694,1 51957U 22025B   24200.74462798  .00000476  00000-0  52805-4 0  9994,2 51957  53.0535 204.5164 0001333  87.8027 272.3114 15.04767705131685,6930.356,95.696,553.145,551.297,0.0
51957.0,STARLINK-3694,PAYLOAD,2024-07-19 06:37:24,15.04766513,0.0001406,53.0534,202.1372,87.6489,272.466,3.5499e-05,2.29e-06,0.0,0 STARLINK-3694,1 51957U 22025B   24201.27598004  .00000229  00000-0  35499-4 0  9999,2 51957  53.0534 202.1372 0001406  87.6489 272.4660 15.04766513130659,6930.359,95.696,553.199,551.25,0.0
51957.0,STARLINK-3694,PAYLOAD,2024-07-20 04:56:24,15.047692,0.0001448,53.054,197.9734,88.3916,271.7238,7.1819e-05,7.47e-06,0.0,0 STARLINK-3694,1 51957U 22025B   24202.20583973  .00000747  00000-0  71819-4 0  9993,2 51957  53.0540 197.9734 0001448  88.3916 271.7238 15.04769200131906,6930.351,95.696,553.22,551.213,0.0
51957.0,STARLINK-3694,PAYLOAD,2024-07-21 04:51:03,15.04764387,0.0001447,53.0544,193.5123,88.7465,271.3689,4.2767e-05,3.33e-06,0.0,0 STARLINK-3694,1 51957U 22025B   24203.20212656  .00000333  00000-0  42767-4 0  9992,2 51957  53.0544 193.5123 0001447  88.7465 271.3689 15.04764387132050,6930.366,95.696,553.234,551.228,0.0
51957.0,STARLINK-3694,PAYLOAD,2024-07-21 06:26:42,15.04766326,0.0001445,53.0545,193.2147,90.0215,270.0939,5.9835e-05,5.76e-06,0.0,0 STARLINK-3694,1 51957U 22025B   24203.26854368  .00000576  00000-0  59835-4 0  9993,2 51957  53.0545 193.2147 0001445  90.0215 270.0939 15.04766326130957,6930.36,95.696,553.226,551.224,0.0
51957.0,STARLINK-3694,PAYLOAD,2024-07-22 09:32:38,15.04768717,0.0001364,53.0541,188.1593,93.5897,266.5248,4.2078e-05,3.23e-06,0.0,0 STARLINK-3694,1 51957U 22025B   24204.39766359  .00000323  00000-0  42078-4 0  9991,2 51957  53.0541 188.1593 0001364  93.5897 266.5248 15.04768717132237,6930.353,95.696,553.163,551.272,0.0
51957.0,STARLINK-3694,PAYLOAD,2024-07-22 22:17:46,15.04769002,0.000123,53.0531,185.779,90.8655,269.2474,8.6591e-05,9.58e-06,0.0,0 STARLINK-3694,1 51957U 22025B   24204.92901258  .00000958  00000-0  86591-4 0  9991,2 51957  53.0531 185.7790 0001230  90.8655 269.2474 15.04769002131207,6930.352,95.696,553.069,551.364,0.0
51957.0,STARLINK-3694,PAYLOAD,2024-07-23 07:51:37,15.04778825,0.0001334,53.0538,183.9948,93.1351,266.9789,0.0001724,2.182e-05,0.0,0 STARLINK-3694,1 51957U 22025B   24205.32751650  .00002182  00000-0  17240-3 0  9990,2 51957  53.0538 183.9948 0001334  93.1351 266.9789 15.04778825132378,6930.322,95.695,553.111,551.262,0.0
51957.0,STARLINK-3694,PAYLOAD,2024-07-23 15:49:51,15.04768906,0.0001412,53.0536,182.5032,87.7434,272.3716,-3.9485e-05,-8.4e-06,0.0,0 STARLINK-3694,1 51957U 22025B   24205.65962020 -.00000840  00000-0 -39485-4 0  9998,2 51957  53.0536 182.5032 0001412  87.7434 272.3716 15.04768906132429,6930.352,95.696,553.196,551.239,0.0
51957.0,STARLINK-3694,PAYLOAD,2024-07-23 22:12:26,15.04764534,0.000179,53.0535,181.3183,87.8723,272.247,2.4385e-05,7e-07,0.0,0 STARLINK-3694,1 51957U 22025B   24205.92530116  .00000070  00000-0  24385-4 0  9991,2 51957  53.0535 181.3183 0001790  87.8723 272.2470 15.04764534131353,6930.366,95.696,553.471,550.99,0.0
51957.0,STARLINK-3694,PAYLOAD,2024-07-24 04:35:00,15.04759563,0.0001497,53.0539,180.129,91.0873,269.0287,-3.2075e-05,-7.34e-06,0.0,0 STARLINK-3694,1 51957U 22025B   24206.19098054 -.00000734  00000-0 -32075-4 0  9995,2 51957  53.0539 180.1290 0001497  91.0873 269.0287 15.04759563132504,6930.381,95.696,553.283,551.208,0.0
51957.0,STARLINK-3694,PAYLOAD,2024-07-24 07:46:17,15.04763423,0.0001433,53.054,179.5328,94.9188,265.1963,2.3131e-05,5.3e-07,0.0,0 STARLINK-3694,1 51957U 22025B   24206.32381450  .00000053  00000-0  23131-4 0  9990,2 51957  53.0540 179.5328 0001433  94.9188 265.1963 15.04763423131418,6930.369,95.696,553.227,551.241,0.0
51957.0,STARLINK-3694,PAYLOAD,2024-07-25 04:29:38,15.0476505,0.0001242,53.0539,175.665,95.8085,264.3045,-0.00012188,-2.014e-05,0.0,0 STARLINK-3694,1 51957U 22025B   24207.18725243 -.00002014  00000-0 -12188-3 0  9997,2 51957  53.0539 175.6650 0001242  95.8085 264.3045 15.04765050132652,6930.364,95.696,553.09,551.368,0.0
51957.0,STARLINK-3694,PAYLOAD,2024-07-25 07:40:55,15.04762759,0.0001296,53.0541,175.0706,90.7467,269.3669,-0.0001359,-2.213e-05,0.0,0 STARLINK-3694,1 51957U 22025B   24207.32009220 -.00002213  00000-0 -13590-3 0  9992,2 51957  53.0541 175.0706 0001296  90.7467 269.3669 15.04762759131567,6930.371,95.696,553.134,551.338,0.0
51957.0,STARLINK-3694,PAYLOAD,2024-07-26 07:35:34,15.04776937,0.000177,53.0539,170.6098,99.3823,260.7365,-0.00012778,-2.099e-05,0.0,0 STARLINK-3694,1 51957U 22025B   24208.31636658 -.00002099  00000-0 -12778-3 0  9992,2 51957  53.0539 170.6098 0001770  99.3823 260.7365 15.04776937132828,6930.327,95.695,553.419,550.966,0.0
51957.0,STARLINK-3694,PAYLOAD,2024-07-26 13:58:08,15.0476612,0.0001429,53.0541,169.4201,81.5115,278.6035,6.2952e-05,6.2e-06,0.0,0 STARLINK-3694,1 51957U 22025B   24208.58204606  .00000620  00000-0  62952-4 0  9991,2 51957  53.0541 169.4201 0001429  81.5115 278.6035 15.04766120131757,6930.361,95.696,553.216,551.235,0.0
51957.0,STARLINK-3694,PAYLOAD,2024-07-27 04:18:55,15.04762889,0.0001381,53.054,166.7432,82.5527,277.5618,0.00019237,2.466e-05,0.0,0 STARLINK-3694,1 51957U 22025B   24209.17981134  .00002466  00000-0  19237-3 0  9992,2 51957  53.0540 166.7432 0001381  82.5527 277.5618 15.04762889131840,6930.371,95.696,553.193,551.279,0.0
51957.0,STARLINK-3694,PAYLOAD,2024-07-27 21:51:01,15.04757587,0.0001197,53.0523,163.472,79.4143,280.698,-3.6761e-05,-8.01e-06,0.0,0 STARLINK-3694,1 51957U 22025B   24209.91043299 -.00000801  00000-0 -36761-4 0  9990,2 51957  53.0523 163.4720 0001197  79.4143 280.6980 15.04757587131957,6930.387,95.696,553.081,551.422,0.0
51957.0,STARLINK-3694,PAYLOAD,2024-07-28 04:13:35,15.04757181,0.0001191,53.0526,162.2828,78.8287,281.2835,-4.854e-05,-9.69e-06,0.0,0 STARLINK-3694,1 51957U 22025B   24210.17611011 -.00000969  00000-0 -48540-4 0  9996,2 51957  53.0526 162.2828 0001191  78.8287 281.2835 15.04757181133107,6930.388,95.697,553.079,551.428,0.0
